LEMUR-2-ROUNDTRIPPER    
1 62711U 25009DG  26183.19724351  .00010499  00000+0  76283-3 0  9996
2 62711  97.7231 265.8564 0004895  95.0137 265.1648 15.04035331 79884
LEMUR-2-MYNAMEISJEFF    
1 62712U 25009DH  26183.19565893  .00010446  00000+0  75924-3 0  9994
2 62712  97.7278 266.2449 0003709 126.9268 233.2298 15.04028484 79883
LEMUR-2-LEIA-PHILIP     
1 63246U 25052AN  26183.23942367  .00001976  00000+0  17514-3 0  9994
2 63246  97.6813  74.9356 0004367 156.7797 203.3623 14.97355691 70920
LEMUR-2-LIA-MARTIN      
1 63248U 25052AQ  26183.23923585  .00005848  00000+0  50097-3 0  9992
2 63248  97.6864  75.4325 0004639 123.8368 236.3296 14.97923175 70932
LEMUR-2-DELOITTE-1      
1 63259U 25052BB  26183.28444734  .00004210  00000+0  36419-3 0  9997
2 63259  97.6898  75.8089 0002523  67.8926 292.2564 14.97705482 70959
LEMUR-2-EMERSONROSE     
1 63261U 25052BD  26183.24478510  .00005298  00000+0  43979-3 0  9991
2 63261  97.6868  76.3550 0002475  77.0849 283.0650 14.99191997 70991
LEMUR-2-MARACHE-FRAN    
1 63262U 25052BE  26183.27643011  .00005439  00000+0  43930-3 0  9999
2 63262  97.6893  76.7354 0004328 315.5500  44.5376 15.00231365 71026
LEMUR-2-THEFALCONER     
1 63264U 25052BG  26183.24625483  .00004967  00000+0  43118-3 0  9994
2 63264  97.6841  75.3739 0001169  25.0769 335.0509 14.97486605 70943
LEMUR-2-UNTITLED-SC     
1 63351U 25061A   26182.96412734  .00004022  00000+0  22715-3 0  9994
2 63351  97.5642 158.2191 0017822 209.2011 150.8225 15.13571815 69820
LEMUR-2-ESPERANZA       
1 63352U 25061B   26182.87426282  .00004535  00000+0  25499-3 0  9999
2 63352  97.5650 158.2268 0017427 208.7998 151.2273 15.13664603 69819
LEMUR-2-KREMPEL-BRO2    
1 63353U 25061C   26182.96308215  .00004094  00000+0  22766-3 0  9999
2 63353  97.5697 158.8673 0018556 200.8326 159.2152 15.14102204 69841
LEMUR-2-THERMORAPTOR    
1 63354U 25061D   26182.87828093  .00004779  00000+0  26455-3 0  9990
2 63354  97.5702 158.8614 0018287 200.0187 160.0330 15.14186089 69832
LEMUR-2-NEUROSPICY      
1 63355U 25061E   26183.24530272  .00003944  00000+0  21844-3 0  9992
2 63355  97.5629 158.8411 0016088 201.5188 158.5369 15.14304316 69895
LEMUR-2-TILLINFINITY    
1 63356U 25061F   26183.20870957  .00004749  00000+0  25779-3 0  9991
2 63356  97.5616 159.1058 0017658 189.8924 170.1962 15.14889142 69910
LEMUR-2-KREMPEL-BRO1    
1 63357U 25061G   26183.18410394  .00004122  00000+0  22542-3 0  9994
2 63357  97.5618 158.9929 0018266 191.3392 168.7431 15.14695332 69909
LEMUR-2-LANGER2SPACE    
1 63358U 25061H   26182.88323432  .00004682  00000+0  25799-3 0  9995
2 63358  97.5620 158.5020 0015987 201.2018 158.8553 15.14387374 69846
LEMUR-2-BALTO           
1 63395U 25052BH  26183.26110633  .00006733  00000+0  54219-3 0  9994
2 63395  97.6926  76.6966 0006129  16.0329 344.1087 15.00252414 71027
LEMUR-2-KRISH           
1 64561U 25135AK  26183.25482750  .00006224  00000+0  55497-3 0  9997
2 64561  97.7757 298.0279 0001379 106.9136 253.2236 14.96341770 56173
LEMUR-2-HUBBLE-4        
1 64565U 25135AP  26183.27900075  .00001937  00000+0  18864-3 0  9991
2 64565  97.7709 297.0067 0001531 201.1913 158.9244 14.93655590 56129
LEMUR-2-SEJONG-2        
1 64586U 25135BL  26183.27993347  .00005741  00000+0  50604-3 0  9993
2 64586  97.7718 298.1986 0002707 276.4240  83.6674 14.96828178 56205
LEMUR-2-HUBBLE-5        
1 64840U 25135BT  26183.29239244  .00001471  00000+0  14270-3 0  9992
2 64840  97.7732 297.6751 0004117 293.5707  66.5080 14.94182518 56168
LEMUR-2-KARENDARRELL    
1 64841U 25135BU  26183.19210323  .00009810  00000+0  78515-3 0  9996
2 64841  97.7695 299.3765 0011103 146.9566 213.2353 15.00337515 56260
LEMUR-2-LUCILLE-ROSE    
1 65403U 25135BV  26183.29891804  .00008519  00000+0  68211-3 0  9998
2 65403  97.7741 299.5159 0013131 229.4493 130.5588 15.00345344 50900
LEMUR-2-AFFIE-WAUWIE    
1 66295U 25248C   26182.64042176  .00026135  00000+0  95282-3 0  9993
2 66295  45.3938  36.6515 0008171 179.1920 180.8984 15.27762233 36807
LEMUR-2-DEANANDMAEVE    
1 66678U 25276N   26183.19436209  .00007503  00000+0  35220-3 0  9998
2 66678  97.4208 256.4220 0004424 315.6162  44.4718 15.19917633 32697
LEMUR-2-STAS-GORBUK     
1 66686U 25276W   26183.14661144  .00007229  00000+0  34319-3 0  9993
2 66686  97.4243 256.4286 0003691 314.7212  45.3722 15.19538743 32683
LEMUR-2-TEODOR          
1 66768U 25276DG  26183.17975539  .00006610  00000+0  29928-3 0  9996
2 66768  97.4149 256.7166 0002374 101.7713 258.3790 15.21214120 32725
LEMUR-2-LAILA           
1 66776U 25276DQ  26183.21725096  .00007374  00000+0  33128-3 0  9996
2 66776  97.4169 256.8837 0002834 114.0058 246.1475 15.21439154 32734
LEMUR-2-CELIJO-SB-PK    
1 66781U 25276DW  26183.17877281  .00007665  00000+0  61777-3 0  9995
2 66781  97.5215 253.4631 0007771  96.3811 263.8298 15.00156690 24875
