OBJECT_NAME,OBJECT_ID,EPOCH,MEAN_MOTION,ECCENTRICITY,INCLINATION,RA_OF_ASC_NODE,ARG_OF_PERICENTER,MEAN_ANOMALY,EPHEMERIS_TYPE,CLASSIFICATION_TYPE,NORAD_CAT_ID,ELEMENT_SET_NO,REV_AT_EPOCH,BSTAR,MEAN_MOTION_DOT,MEAN_MOTION_DDOT
LEMUR-2-ROUNDTRIPPER,2025-009DG,2026-07-02T04:44:01.839264,15.04035331,.00048959,97.7231,265.8564,95.0137,265.1648,0,U,62711,999,7988,.76283477E-3,.10499E-3,0
LEMUR-2-MYNAMEISJEFF,2025-009DH,2026-07-02T04:41:44.931552,15.04028484,.00037091,97.7278,266.2449,126.9268,233.2298,0,U,62712,999,7988,.75923972E-3,.10446E-3,0
LEMUR-2-LEIA-PHILIP,2025-052AN,2026-07-02T05:44:46.205088,14.97355691,.00043675,97.6813,74.9356,156.7797,203.3623,0,U,63246,999,7092,.17513575E-3,.1976E-4,0
LEMUR-2-LIA-MARTIN,2025-052AQ,2026-07-02T05:44:29.977440,14.97923175,.00046391,97.6864,75.4325,123.8368,236.3296,0,U,63248,999,7093,.50096562E-3,.5848E-4,0
LEMUR-2-DELOITTE-1,2025-052BB,2026-07-02T06:49:36.250176,14.97705482,.00025234,97.6898,75.8089,67.8926,292.2564,0,U,63259,999,7095,.36419388E-3,.421E-4,0
LEMUR-2-EMERSONROSE,2025-052BD,2026-07-02T05:52:29.432640,14.99191997,.00024756,97.6868,76.3550,77.0849,283.0650,0,U,63261,999,7099,.43979104E-3,.5298E-4,0
LEMUR-2-MARACHE-FRAN,2025-052BE,2026-07-02T06:38:03.561504,15.00231365,.00043284,97.6893,76.7354,315.5500,44.5376,0,U,63262,999,7102,.43929627E-3,.5439E-4,0
LEMUR-2-THEFALCONER,2025-052BG,2026-07-02T05:54:36.417312,14.97486605,.00011695,97.6841,75.3739,25.0769,335.0509,0,U,63264,999,7094,.43117629E-3,.4967E-4,0
LEMUR-2-UNTITLED-SC,2025-061A,2026-07-01T23:08:20.602176,15.13571815,.0017822,97.5642,158.2191,209.2011,150.8225,0,U,63351,999,6982,.22715277E-3,.4022E-4,0
LEMUR-2-ESPERANZA,2025-061B,2026-07-01T20:58:56.307648,15.13664603,.00174274,97.5650,158.2268,208.7998,151.2273,0,U,63352,999,6981,.25499488E-3,.4535E-4,0
LEMUR-2-KREMPEL-BRO2,2025-061C,2026-07-01T23:06:50.297760,15.14102204,.00185565,97.5697,158.8673,200.8326,159.2152,0,U,63353,999,6984,.22766352E-3,.4094E-4,0
LEMUR-2-THERMORAPTOR,2025-061D,2026-07-01T21:04:43.472352,15.14186089,.00182872,97.5702,158.8614,200.0187,160.0330,0,U,63354,999,6983,.264549E-3,.4779E-4,0
LEMUR-2-NEUROSPICY,2025-061E,2026-07-02T05:53:14.155008,15.14304316,.00160882,97.5629,158.8411,201.5188,158.5369,0,U,63355,999,6989,.21843738E-3,.3944E-4,0
LEMUR-2-TILLINFINITY,2025-061F,2026-07-02T05:00:32.506848,15.14889142,.00176589,97.5616,159.1058,189.8924,170.1962,0,U,63356,999,6991,.25779495E-3,.4749E-4,0
LEMUR-2-KREMPEL-BRO1,2025-061G,2026-07-02T04:25:06.580416,15.14695332,.00182665,97.5618,158.9929,191.3392,168.7431,0,U,63357,999,6990,.22541839E-3,.4122E-4,0
LEMUR-2-LANGER2SPACE,2025-061H,2026-07-01T21:11:51.445248,15.14387374,.00159876,97.5620,158.5020,201.2018,158.8553,0,U,63358,999,6984,.25799421E-3,.4682E-4,0
LEMUR-2-BALTO,2025-052BH,2026-07-02T06:15:59.586912,15.00252414,.00061297,97.6926,76.6966,16.0329,344.1087,0,U,63395,999,7102,.54219103E-3,.6733E-4,0
LEMUR-2-KRISH,2025-135AK,2026-07-02T06:06:57.096000,14.96341770,.0001379,97.7757,298.0279,106.9136,253.2236,0,U,64561,999,5617,.55496968E-3,.6224E-4,0
LEMUR-2-HUBBLE-4,2025-135AP,2026-07-02T06:41:45.664800,14.93655590,.00015315,97.7709,297.0067,201.1913,158.9244,0,U,64565,999,5612,.18863508E-3,.1937E-4,0
LEMUR-2-SEJONG-2,2025-135BL,2026-07-02T06:43:06.251808,14.96828178,.00027077,97.7718,298.1986,276.4240,83.6674,0,U,64586,999,5620,.50603769E-3,.5741E-4,0
LEMUR-2-HUBBLE-5,2025-135BT,2026-07-02T07:01:02.706816,14.94182518,.00041177,97.7732,297.6751,293.5707,66.5080,0,U,64840,999,5616,.14269545E-3,.1471E-4,0
LEMUR-2-KARENDARRELL,2025-135BU,2026-07-02T04:36:37.719072,15.00337515,.0011103,97.7695,299.3765,146.9566,213.2353,0,U,64841,999,5626,.78514859E-3,.981E-4,0
LEMUR-2-LUCILLE-ROSE,2025-135BV,2026-07-02T07:10:26.518656,15.00345344,.00131311,97.7741,299.5159,229.4493,130.5588,0,U,65403,999,5090,.68210584E-3,.8519E-4,0
LEMUR-2-AFFIE-WAUWIE,2025-248C,2026-07-01T15:22:12.440064,15.27762233,.00081716,45.3938,36.6515,179.1920,180.8984,0,U,66295,999,3680,.95282251E-3,.26135E-3,0
LEMUR-2-DEANANDMAEVE,2025-276N,2026-07-02T04:39:52.884576,15.19917633,.00044246,97.4208,256.4220,315.6162,44.4718,0,U,66678,999,3269,.35220213E-3,.7503E-4,0
LEMUR-2-STAS-GORBUK,2025-276W,2026-07-02T03:31:07.228416,15.19538743,.00036919,97.4243,256.4286,314.7212,45.3722,0,U,66686,999,3268,.34318684E-3,.7229E-4,0
LEMUR-2-TEODOR,2025-276DG,2026-07-02T04:18:50.865696,15.21214120,.00023747,97.4149,256.7166,101.7713,258.3790,0,U,66768,999,3272,.29927569E-3,.661E-4,0
LEMUR-2-LAILA,2025-276DQ,2026-07-02T05:12:50.482944,15.21439154,.00028348,97.4169,256.8837,114.0058,246.1475,0,U,66776,999,3273,.33128215E-3,.7374E-4,0
LEMUR-2-CELIJO-SB-PK,2025-276DW,2026-07-02T04:17:25.970784,15.00156690,.0007771,97.5215,253.4631,96.3811,263.8298,0,U,66781,999,2487,.61777321E-3,.7665E-4,0
